OPS 6582 (TRANSIT 5B-5) 
1 00965U 64083D   22299.75938108  .00000081  00000+0  10066-3 0  9990
2 00965  90.0338 195.8535 0040110 202.8343 221.5639 13.56791423863320
OSCAR 7 (AO-7)          
1 07530U 74089B   22299.86282708 -.00000049  00000+0 -21677-4 0  9999
2 07530 101.9220 280.2203 0012254 148.7180 325.7520 12.53658076193934
UOSAT 2 (UO-11)         
1 14781U 84021B   22300.42602771  .00000967  00000+0  12248-3 0  9993
2 14781  97.6319 281.9539 0006843 243.4366 116.6148 14.83913161 80613
NOAA 9                  
1 15427U 84123A   22299.85489205  .00000078  00000+0  62713-4 0  9999
2 15427  99.0628 274.4032 0015230 149.6758 245.0968 14.16236861955212
LUSAT (LO-19)           
1 20442U 90005G   22299.85037294  .00000109  00000+0  56617-4 0  9996
2 20442  98.8122 266.8274 0012401 139.0939 221.1177 14.33102593711923
ITAMSAT (IO-26)         
1 22826U 93061D   22299.61188317  .00000081  00000+0  48821-4 0  9993
2 22826  98.8696 333.2215 0009291  22.5429 337.6159 14.30552745517162
RADIO ROSTO (RS-15)     
1 23439U 94085A   22299.92433318 -.00000039  00000+0  10000-3 0  9990
2 23439  64.8180 292.9730 0167912 250.1940 108.0812 11.27573315146319
JAS-2 (FO-29)           
1 24278U 96046B   22299.75480660 -.00000006  00000+0  32302-4 0  9998
2 24278  98.5148 305.3685 0349448 302.6948  54.0939 13.53122927293362
NOAA 15                 
1 25338U 98030A   22300.45731741  .00000127  00000+0  71114-4 0  9997
2 25338  98.6335 328.2042 0009282 272.8282  87.1836 14.26187459272089
TECHSAT 1B (GO-32)      
1 25397U 98043D   22299.84446736  .00000052  00000+0  42580-4 0  9995
2 25397  98.8339 250.7468 0002364  87.7909 272.3540 14.23781605262342
ISS (ZARYA)             
1 25544U 98067A   22300.50088523  .00010792  00000+0  20048-3 0  9993
2 25544  51.6438  41.0966 0005934   9.5876  93.6999 15.49460720365705
ORSTED                  
1 25635U 99008B   22299.80638558  .00000401  00000+0  10140-3 0  9997
2 25635  96.4451 133.8923 0139414 121.5553 239.9346 14.48575358249297
PHASE 3D (AO-40)        
1 26609U 00072B   22299.15301171  .00000063  00000+0  00000+0 0  9992
2 26609   5.5211 237.7418 7972699  72.9826 353.6015  1.25588826100799
PCSAT (NO-44)           
1 26931U 01043C   22300.36341243  .00000114  00000+0  75194-4 0  9997
2 26931  67.0508  77.9039 0005326 261.5545  98.4952 14.30751747100432
SAUDISAT 1C (SO-50)     
1 27607U 02058C   22300.28705054  .00001043  00000+0  16231-3 0  9998
2 27607  64.5540 258.4102 0081584 269.3867  89.7887 14.76354994 68044
CUTE-1 (CO-55)          
1 27844U 03031E   22299.82035797  .00000245  00000+0  12920-3 0  9994
2 27844  98.6809 305.5410 0010958  82.6446 277.5976 14.22522985  2553
CUBESAT XI-IV (CO-57)   
1 27848U 03031J   22300.45785205  .00000205  00000+0  11244-3 0  9990
2 27848  98.6851 306.6589 0010864  94.0939 266.1481 14.22070521  2473
MOZHAYETS 4 (RS-22)     
1 27939U 03042A   22300.54336516  .00000871  00000+0  16215-3 0  9992
2 27939  98.2117  81.3897 0013270 147.0852 213.1179 14.67563455 20413
INMARSAT 4-F1           
1 28628U 05009A   22300.41021462 -.00000248  00000+0  00000+0 0  9990
2 28628   3.7118  36.3589 0002814 180.6031 109.9887  1.00271146 64347
NOAA 18                 
1 28654U 05018A   22300.43163350  .00000207  00000+0  13564-3 0  9991
2 28654  98.9371  10.6865 0013504 321.3636  38.6568 14.12796525898707
CUBESAT XI-V            
1 28895U 05043F   22299.90965197  .00000954  00000+0  18836-3 0  9990
2 28895  98.1250  69.4137 0017709  88.0916 272.2314 14.64596366906887
METOP-A                 
1 29499U 06044A   22300.51910292  .00001065  00000+0  14960-3 0  9997
2 29499  98.4363 349.2495 0196239 314.1534 152.1728 14.67511301832890
CARTOSAT-2 (IRS-P7)     
1 29710U 07001B   22299.77064123  .00013458  00000+0  30514-3 0  9997
2 29710  97.8759  53.2812 0138477 315.8615  43.1640 15.33659556856337
FALCONSAT-3             
1 30776U 07006E   22299.83267392  .00085993  00000+0  77341-3 0  9998
2 30776  35.4263 112.9790 0004308 343.2908  16.7686 15.66978748870090
CAPE-1                  
1 31130U 07012P   22300.07449953  .00000822  00000+0  18166-3 0  9992
2 31130  98.2804 239.7955 0093408 245.2609 113.8846 14.57369013824254
CARTOSAT-2A             
1 32783U 08021A   22300.44301953  .00000293  00000+0  47023-4 0  9993
2 32783  97.9509 359.2354 0013937 101.7346 258.5393 14.78697849782522
CUTE-1.7+APD II (CO-65) 
1 32785U 08021C   22299.87160881  .00002101  00000+0  22267-3 0  9994
2 32785  97.6748 266.7045 0013246 151.1863 209.0090 14.90099085786128
COMPASS-1               
1 32787U 08021E   22300.39742351  .00004229  00000+0  37359-3 0  9995
2 32787  97.5769 278.0420 0013169  66.4935 293.7669 14.96807527787832
AAUSAT-II               
1 32788U 08021F   22299.89804623  .00005276  00000+0  44337-3 0  9996
2 32788  97.5474 280.7342 0012719  51.2289 309.0068 14.98648249788216
DELFI-C3 (DO-64)        
1 32789U 08021G   22299.63997306  .00010430  00000+0  52882-3 0  9992
2 32789  97.3298 321.3978 0008309 215.5919 144.4762 15.17100264791792
SEEDS II (CO-66)        
1 32791U 08021J   22300.14094422  .00003658  00000+0  35284-3 0  9992
2 32791  97.6281 272.3272 0014492 108.3268 251.9530 14.93416943786921
YUBILEINY (RS-30)       
1 32953U 08025A   22300.45043222  .00000024  00000+0  10000-3 0  9995
2 32953  82.4983 101.8509 0019079 334.0202  25.9926 12.43114458654733
FENGYUN 3A              
1 32958U 08026A   22300.34994815  .00000093  00000+0  64979-4 0  9993
2 32958  98.5211 257.6938 0008974   9.5272 350.6073 14.18753368747039
PRISM (HITOMI)          
1 33493U 09002B   22300.39531697  .00005332  00000+0  42032-3 0  9999
2 33493  98.2497 294.6744 0016790 101.0885 259.2227 15.01121721748778
STARS (KUKAI)           
1 33498U 09002G   22299.66822979  .00001455  00000+0  19775-3 0  9997
2 33498  98.1514 193.7980 0010292 181.2290 178.8898 14.80363985740840
KKS-1 (KISEKI)          
1 33499U 09002H   22300.15577868  .00000834  00000+0  12822-3 0  9995
2 33499  98.1968 184.2555 0007616 252.2738 107.7640 14.76216086740108
NOAA 19                 
1 33591U 09005A   22300.44798866  .00000171  00000+0  11716-3 0  9991
2 33591  99.1347 337.2802 0014057 173.6914 186.4436 14.12628090707086
SWISSCUBE               
1 35932U 09051B   22300.16802454  .00000679  00000+0  16185-3 0  9999
2 35932  98.5496 159.6853 0007850  11.6211 348.5167 14.57033570695317
BEESAT-1                
1 35933U 09051C   22300.19113369  .00000587  00000+0  14141-3 0  9991
2 35933  98.5431 161.2429 0006304  25.8762 334.2749 14.57028840695431
ITUPSAT1                
1 35935U 09051E   22300.15215766  .00000550  00000+0  13557-3 0  9993
2 35935  98.5532 161.2233 0008642  26.6755 333.4885 14.56125760695076
XIWANG-1 (HOPE-1)       
1 36122U 09072B   22299.90898548 -.00000058  00000+0 -39667-4 0  9996
2 36122 100.2022 266.5322 0007989  42.4712 317.7019 13.16373376618218
CARTOSAT-2B             
1 36795U 10035A   22300.34567467  .00000664  00000+0  97615-4 0  9995
2 36795  97.9462 359.1964 0013604 172.7206 187.4214 14.78667769663558
TISAT 1                 
1 36799U 10035E   22300.40082323  .00002564  00000+0  24889-3 0  9992
2 36799  98.1644 155.9954 0012364  27.4717 332.7153 14.93535162667653
FENGYUN 3B              
1 37214U 10059A   22300.50778687 -.00000002  00000+0  23144-4 0  9997
2 37214  99.0947 308.8402 0021854 345.4504  14.6053 14.14270591619624
JUGNU                   
1 37839U 11058B   22300.47914542  .00000446  00000+0  95141-4 0  9995
2 37839  19.9605  94.6484 0018827 172.4760 225.3090 14.12823415570947
SRMSAT                  
1 37841U 11058D   22300.04944431  .00000409  00000+0  79494-4 0  9993
2 37841  19.9706 179.4533 0011777 350.3004 151.9117 14.10786306570066
M-CUBED & EXP-1 PRIME   
1 37855U 11061F   22300.45715929  .00008770  00000+0  36355-3 0  9992
2 37855 101.7193 129.8240 0146008  26.0054 334.8405 15.15116956601671
HORYU-2                 
1 38340U 12025D   22300.19604145  .00001543  00000+0  22626-3 0  9998
2 38340  98.1867  20.5238 0011783 160.5628 199.6033 14.77001752562094
METOP-B                 
1 38771U 12049A   22300.47653997  .00000095  00000+0  63500-4 0  9990
2 38771  98.7140 358.3333 0001266  64.4710  61.2382 14.21486423524482
SARAL                   
1 39086U 13009A   22300.51411806  .00000062  00000+0  39441-4 0  9994
2 39086  98.5477 124.2148 0000459 152.1022 208.0186 14.32039846505387
AAUSAT 3                
1 39087U 13009B   22300.36283957  .00000551  00000+0  20306-3 0  9994
2 39087  98.3915 136.5689 0011390 231.2865 128.7298 14.36303144506516
STRAND-1                
1 39090U 13009E   22299.77437022  .00000193  00000+0  82274-4 0  9999
2 39090  98.3965 134.4564 0008030 236.8463 123.1953 14.35351931506238
BRITE-AUSTRIA           
1 39091U 13009F   22300.31901317  .00000141  00000+0  64015-4 0  9992
2 39091  98.3985 134.1758 0009408 242.7705 117.2522 14.35318191506358
UNIBRITE                
1 39092U 13009G   22300.14339498  .00000131  00000+0  60761-4 0  9992
2 39092  98.4020 133.7919 0008349 237.8067 122.2310 14.35188743506284
SOMP                    
1 39134U 13015E   22300.38523879  .00019468  00000+0  60696-3 0  9999
2 39134  64.8607 347.7693 0033265 262.8040  96.9311 15.32768148527427
BEESAT-3                
1 39135U 13015F   22299.67409022  .00012187  00000+0  45739-3 0  9994
2 39135  64.8668  29.6014 0038208 264.8774  94.7996 15.26856445526128
BEESAT-2                
1 39136U 13015G   22300.53429807  .00013456  00000+0  52920-3 0  9996
2 39136  64.8756  35.7867 0024370 293.2523  66.6041 15.25646187526526
NEE-01 PEGASO           
1 39151U 13018B   22300.25217401  .00001555  00000+0  20582-3 0  9996
2 39151  97.9989  45.5375 0016635 183.9264 176.1821 14.81289127513193
CUBEBUG-1 (CAPITAN BETO)
1 39153U 13018D   22300.52558021  .00002015  00000+0  25990-3 0  9994
2 39153  98.0235  50.7532 0016601 177.6360 182.4934 14.82052360513399
